[{"OBJECT_NAME":"STARLINK-32562","OBJECT_ID":"2024-225F","EPOCH":"2026-03-09T16:21:06.295104","MEAN_MOTION":14.98336336,"ECCENTRICITY":0.00034535,"INCLINATION":70.0022,"RA_OF_ASC_NODE":164.4792,"ARG_OF_PERICENTER":273.4168,"MEAN_ANOMALY":86.6596,"EPHEMERIS_TYPE":0,"CLASSIFICATION_TYPE":"U","NORAD_CAT_ID":62168,"ELEMENT_SET_NO":999,"REV_AT_EPOCH":6987,"BSTAR":0.00050041941,"MEAN_MOTION_DOT":5.884e-5,"MEAN_MOTION_DDOT":0},{"OBJECT_NAME":"COSMOS 2151","OBJECT_ID":"1991-042A","EPOCH":"2026-03-09T21:12:10.736640","MEAN_MOTION":15.00104908,"ECCENTRICITY":0.00139956,"INCLINATION":82.493,"RA_OF_ASC_NODE":83.4892,"ARG_OF_PERICENTER":63.3058,"MEAN_ANOMALY":296.9597,"EPHEMERIS_TYPE":0,"CLASSIFICATION_TYPE":"U","NORAD_CAT_ID":21422,"ELEMENT_SET_NO":999,"REV_AT_EPOCH":86322,"BSTAR":0.00015116122,"MEAN_MOTION_DOT":1.915e-5,"MEAN_MOTION_DDOT":0}]
